GLOBALSTAR M024         
1 25883U 99043A   24250.49247519 -.00000068  00000+0 -99288-4 0  9990
2 25883  52.0034 300.7394 0001178 358.4806 110.3457 11.10163571 83355
GLOBALSTAR M027         
1 25884U 99043B   24250.55823189 -.00000100  00000+0 -13647-2 0  9991
2 25884  52.0259  10.5315 0020801 252.3052 107.5470 11.04368961109909
GLOBALSTAR M054         
1 25885U 99043C   24250.21208164 -.00000186  00000+0 -29184-2 0  9992
2 25885  52.0119 186.2570 0005869  50.2251  98.2230 11.39210088 86685
GLOBALSTAR M053         
1 25886U 99043D   24250.58968453 -.00000034  00000+0  10100-2 0  9996
2 25886  51.9972 116.7146 0003445 335.4993  61.0035 11.27658413 87459
GLOBALSTAR M058         
1 25907U 99049A   24250.15808385 -.00000028  00000+0  75696-3 0  9991
2 25907  51.9929 147.5999 0002609  80.5531 279.5599 11.93181541507634
GLOBALSTAR M050         
1 25908U 99049B   24250.21170487  .00000051  00000+0  15725-2 0  9995
2 25908  51.9977 176.3470 0008627 183.9821 324.7200 12.07439422113880
GLOBALSTAR M033         
1 25909U 99049C   24250.53314457 -.00000104  00000+0 -11588-3 0  9993
2 25909  51.9909  66.8914 0013304  44.7046 315.4871 12.20276985501119
GLOBALSTAR M055         
1 25910U 99049D   24250.59752608 -.00000048  00000+0  39735-3 0  9995
2 25910  52.0007  91.2590 0006234 264.1166  95.8975 12.29408450133409
